ONEWEB-0403             
1 50483U 21132Q   24262.58887354  .00000093  00000+0  20380-3 0  9990
2 50483  87.9057 102.1753 0001565  82.0807 278.0503 13.18688636138972
ONEWEB-0404             
1 50484U 21132R   24262.71123193 -.00000486  00000+0 -14083-2 0  9990
2 50484  87.8972 147.8295 0001814  61.4427 298.6884 13.11413855133541
ONEWEB-0405             
1 50485U 21132S   24262.52878143  .00000013  00000+0  67403-6 0  9994
2 50485  87.9056 102.1770 0001331  92.0382 268.0902 13.18688109138081
ONEWEB-0406             
1 50486U 21132T   24262.59360559  .00000090  00000+0  19665-3 0  9998
2 50486  87.9058 102.1778 0002172  69.6771 290.4595 13.18688716137729
ONEWEB-0407             
1 50487U 21132U   24262.58729111  .00000119  00000+0  26869-3 0  9997
2 50487  87.9055 102.1764 0001510  84.5427 275.5877 13.18687157138952
ONEWEB-0409             
1 50488U 21132V   24262.25176669 -.00000436  00000+0 -12648-2 0  9999
2 50488  87.8964 147.9089 0002064  66.5461 293.5884 13.11416423132109
ONEWEB-0412             
1 50489U 21132W   24262.57622835  .00000067  00000+0  13661-3 0  9991
2 50489  87.9061 102.1828 0001267  92.6240 267.5037 13.18686331139036
ONEWEB-0413             
1 50490U 21132X   24262.58096986  .00000083  00000+0  17783-3 0  9993
2 50490  87.9060 102.1943 0001480  97.2668 262.8632 13.18687406138983
